H1 CPF 01  gfz 2022 12 15 13  8492 terrasarx 
H2 0702601  6201 31698    2022 12 15 12 59 42 2022 12 20 00 00 42   120 1 1  0 0 0
H9
10 0 59928  63342.000000  0   -6839567.713   -800908.107    200696.653
10 0 59928  63462.000000  0   -6826229.507   -620188.350   -703317.443
10 0 59928  63582.000000  0   -6690407.900   -429939.544  -1594961.122
10 0 59928  63702.000000  0   -6434439.956   -235612.801  -2458568.892
10 0 59928  63822.000000  0   -6062868.335    -42666.557  -3278995.753
10 0 59928  63942.000000  0   -5582350.172    143568.324  -4041888.327
10 0 59928  64062.000000  0   -5001524.074    318018.326  -4733936.088
10 0 59928  64182.000000  0   -4330841.546    475988.977  -5343099.492
10 0 59928  64302.000000  0   -3582367.236    613275.932  -5858811.942
10 0 59928  64422.000000  0   -2769552.404    726261.826  -6272152.725
10 0 59928  64542.000000  0   -1906988.383    811998.411  -6575988.779
10 0 59928  64662.000000  0   -1010143.756    868272.855  -6765087.322
10 0 59928  64782.000000  0     -95089.287    893656.993  -6836195.359
10 0 59928  64902.000000  0     821782.806    887538.424  -6788088.652
10 0 59928  65022.000000  0    1724044.827    850133.340  -6621593.169
10 0 59928  65142.000000  0    2595522.539    782481.302  -6339572.943
10 0 59928  65262.000000  0    3420579.958    686421.884  -5946885.787
10 0 59928  65382.000000  0    4184396.404    564552.995  -5450307.321
10 0 59928  65502.000000  0    4873232.348    420171.369  -4858425.379
10 0 59928  65622.000000  0    5474681.379    257197.079  -4181503.203
10 0 59928  65742.000000  0    5977901.631     80082.094  -3431311.128
10 0 59928  65862.000000  0    6373821.313   -106294.923  -2620930.224
10 0 59928  65982.000000  0    6655315.538   -296745.709  -1764529.635
10 0 59928  66102.000000  0    6817347.486   -485898.751   -877118.939
10 0 59928  66222.000000  0    6857069.370   -668331.322     25717.782
10 0 59928  66342.000000  0    6773881.468   -838704.836    928101.188
10 0 59928  66462.000000  0    6569445.903   -991899.821   1814144.088
10 0 59928  66582.000000  0    6247655.671  -1123146.837   2668240.498
10 0 59928  66702.000000  0    5814556.183  -1228149.594   3475349.744
10 0 59928  66822.000000  0    5278225.292  -1303197.211   4221267.075
10 0 59928  66942.000000  0    4648613.893  -1345264.038   4892877.792
10 0 59928  67062.000000  0    3937351.065  -1352092.388   5478388.354
10 0 59928  67182.000000  0    3157520.050  -1322257.331   5967531.754
10 0 59928  67302.000000  0    2323408.879  -1255213.308   6351743.013
10 0 59928  67422.000000  0    1450243.148  -1151321.060   6624303.315
10 0 59928  67542.000000  0     553903.805  -1011854.469   6780452.339
10 0 59928  67662.000000  0    -349363.944   -838986.352   6817465.500
10 0 59928  67782.000000  0   -1243244.490   -635754.681   6734697.180
10 0 59928  67902.000000  0   -2111644.941   -406009.357   6533590.989
10 0 59928  68022.000000  0   -2938983.291   -154339.928   6217656.398
10 0 59928  68142.000000  0   -3710468.307    114014.369   5792412.594
10 0 59928  68262.000000  0   -4412367.336    393270.785   5265298.326
10 0 59928  68382.000000  0   -5032256.420    677223.756   4645547.678
10 0 59928  68502.000000  0   -5559248.298    959377.976   3944033.601
10 0 59928  68622.000000  0   -5984192.245   1233091.478   3173080.092
10 0 59928  68742.000000  0   -6299842.277   1491725.487   2346247.321
10 0 59928  68862.000000  0   -6500989.955   1728797.286   1478091.571
10 0 59928  68982.000000  0   -6584558.351   1938132.942    583904.409
10 0 59928  69102.000000  0   -6549652.800   2114015.936   -320564.831
10 0 59928  69222.000000  0   -6397566.824   2251326.763  -1219395.448
10 0 59928  69342.000000  0   -6131744.202   2345670.787  -2096784.048
10 0 59928  69462.000000  0   -5757698.595   2393491.644  -2937330.555
10 0 59928  69582.000000  0   -5282890.771   2392166.428  -3726314.758
10 0 59928  69702.000000  0   -4716568.845   2340079.878  -4449955.722
10 0 59928  69822.000000  0   -4069576.900   2236676.974  -5095649.933
10 0 59928  69942.000000  0   -3354137.042   2082493.391  -5652183.884
10 0 59928  70062.000000  0   -2583611.754   1879163.623  -6109919.055
10 0 59928  70182.000000  0   -1772250.055   1629406.674  -6460949.013
10 0 59928  70302.000000  0    -934921.717   1336989.486  -6699223.794
10 0 59928  70422.000000  0     -86847.833   1006669.472  -6820643.013
10 0 59928  70542.000000  0     756669.583    644117.853  -6823118.063
10 0 59928  70662.000000  0    1580516.735    255824.444  -6706606.372
10 0 59928  70782.000000  0    2370033.855   -151016.170  -6473111.779
10 0 59928  70902.000000  0    3111270.200   -568634.022  -6126653.802
10 0 59928  71022.000000  0    3791227.948   -988827.748  -5673205.276
10 0 59928  71142.000000  0    4398088.786  -1403120.499  -5120599.386
10 0 59928  71262.000000  0    4921423.429  -1802927.350  -4478406.666
10 0 59928  71382.000000  0    5352377.681  -2179730.221  -3757779.939
10 0 59928  71502.000000  0    5683831.649  -2525256.483  -2971269.944
10 0 59928  71622.000000  0    5910528.339  -2831657.911  -2132612.628
10 0 59928  71742.000000  0    6029167.052  -3091685.637  -1256491.364
10 0 59928  71862.000000  0    6038459.601  -3298856.693   -358279.059
10 0 59928  71982.000000  0    5939147.032  -3447608.292    546236.178
10 0 59928  72102.000000  0    5733976.103  -3533435.605   1441135.284
10 0 59928  72222.000000  0    5427634.893  -3553008.976   2310658.664
10 0 59928  72342.000000  0    5026646.980  -3504266.095   3139492.399
10 0 59928  72462.000000  0    4539230.730  -3386478.421   3913045.032
10 0 59928  72582.000000  0    3975126.709  -3200289.273   4617708.859
10 0 59928  72702.000000  0    3345396.943  -2947724.959   5241102.661
10 0 59928  72822.000000  0    2662199.861  -2632175.961   5772288.405
10 0 59928  72942.000000  0    1938549.531  -2258350.300   6201959.453
10 0 59928  73062.000000  0    1188062.773  -1832201.173   6522598.213
10 0 59928  73182.000000  0     424699.767  -1360829.731   6728601.613
10 0 59928  73302.000000  0    -337496.863   -852364.587   6816373.013
10 0 59928  73422.000000  0   -1084659.824   -315820.561   6784380.331
10 0 59928  73542.000000  0   -1803348.165    239060.862   6633180.898
10 0 59928  73662.000000  0   -2480788.066    801987.885   6365412.485
10 0 59928  73782.000000  0   -3105099.877   1362308.299   5985750.473
10 0 59928  73902.000000  0   -3665508.043   1909210.059   5500831.770
10 0 59928  74022.000000  0   -4152531.351   2431929.922   4919145.677
10 0 59928  74142.000000  0   -4558149.392   2919966.974   4250891.228
10 0 59928  74262.000000  0   -4875941.338   3363295.021   3507801.888
10 0 59928  74382.000000  0   -5101193.511   3752570.520   2702941.841
10 0 59928  74502.000000  0   -5230974.143   4079331.824   1850476.432
10 0 59928  74622.000000  0   -5264173.479   4336184.556    965419.266
10 0 59928  74742.000000  0   -5201505.971   4516967.392     63360.546
10 0 59928  74862.000000  0   -5045475.377   4616893.356   -839815.123
10 0 59928  74982.000000  0   -4800304.402   4632665.372  -1728217.896
10 0 59928  75102.000000  0   -4471828.181   4562561.021  -2586241.976
10 0 59928  75222.000000  0   -4067356.108   4406483.419  -3398846.723
10 0 59928  75342.000000  0   -3595505.576   4165978.943  -4151823.567
10 0 59928  75462.000000  0   -3066013.271   3844222.096  -4832042.865
10 0 59928  75582.000000  0   -2489529.940   3445968.784  -5427676.724
10 0 59928  75702.000000  0   -1877404.024   2977480.959  -5928396.787
10 0 59928  75822.000000  0   -1241456.256   2446422.231  -6325544.146
10 0 59928  75942.000000  0    -593751.430   1861727.353  -6612267.305
10 0 59928  76062.000000  0      53627.608   1233450.289  -6783628.948
10 0 59928  76182.000000  0     688800.084    572592.134  -6836681.836
10 0 59928  76302.000000  0    1300300.380   -109087.817  -6770515.383
10 0 59928  76422.000000  0    1877280.813   -799277.422  -6586268.589
10 0 59928  76542.000000  0    2409698.999  -1485328.207  -6287111.880
10 0 59928  76662.000000  0    2888490.097  -2154481.295  -5878198.576
10 0 59928  76782.000000  0    3305720.585  -2794099.519  -5366586.458
10 0 59928  76902.000000  0    3654723.148  -3391905.804  -4761127.835
10 0 59928  77022.000000  0    3930206.654  -3936219.600  -4072325.244
10 0 59928  77142.000000  0    4128340.099  -4416186.500  -3312159.607
10 0 59928  77262.000000  0    4246810.787  -4821999.185  -2493890.583
10 0 59928  77382.000000  0    4284853.862  -5145103.976  -1631829.828
10 0 59928  77502.000000  0    4243249.769  -5378387.244   -741090.547
10 0 59928  77622.000000  0    4124290.843  -5516335.327    162681.160
10 0 59928  77742.000000  0    3931716.541  -5555164.608   1063587.492
10 0 59928  77862.000000  0    3670619.473  -5492917.843   1945767.380
10 0 59928  77982.000000  0    3347322.905  -5329522.223   2793685.381
10 0 59928  78102.000000  0    2969233.693  -5066810.252   3592412.385
10 0 59928  78222.000000  0    2544675.524  -4708501.792   4327894.552
10 0 59928  78342.000000  0    2082706.523  -4260148.173   4987204.073
10 0 59928  78462.000000  0    1592925.223  -3729039.954   5558766.933
10 0 59928  78582.000000  0    1085269.910  -3124080.880   6032564.486
10 0 59928  78702.000000  0     569815.146  -2455630.940   6400303.868
10 0 59928  78822.000000  0      56571.321  -1735323.581   6655556.120
10 0 59928  78942.000000  0    -444708.855   -975860.485   6793862.130
10 0 59928  79062.000000  0    -924714.382   -190785.898   6812806.877
10 0 59928  79182.000000  0   -1374747.988    605755.494   6712058.760
10 0 59928  79302.000000  0   -1786883.200   1399272.862   6493374.745
10 0 59928  79422.000000  0   -2154103.973   2175191.811   6160571.654
10 0 59928  79542.000000  0   -2470424.965   2919121.741   5719463.772
10 0 59928  79662.000000  0   -2730990.223   3617123.967   5177767.199
10 0 59928  79782.000000  0   -2932150.012   4255976.199   4544971.903
99
